INTELSAT 9 (IS-9)       
1 26451U 00043A   25179.36225259 -.00000123  00000+0  00000+0 0  9998
2 26451   9.6066  52.4091 0001558 129.8966 230.2541  0.99423333 40588
INTELSAT 10 (IS-10)     
1 26766U 01019A   25179.77197264 -.00000018  00000+0  00000+0 0  9993
2 26766   8.2274  62.8608 0003041  15.1865 183.0577  1.00273119 42074
INTELSAT 902 (IS-902)   
1 26900U 01039A   25180.09766951 -.00000290  00000+0  00000+0 0  9999
2 26900   5.2233  76.1198 0004234  23.9096 162.4780  1.00270479 87157
INTELSAT 904 (IS-904)   
1 27380U 02007A   25180.49162740 -.00000210  00000+0  00000+0 0  9990
2 27380   6.0360  73.4272 0002054  24.5752 329.2707  1.00273312 48223
DIRECTV 5 (TEMPO 1)     
1 27426U 02023A   25180.38864190 -.00000062  00000+0  00000+0 0  9990
2 27426   3.9748  79.7578 0003185  22.0159 205.7176  1.00271814 84580
INTELSAT 905 (IS-905)   
1 27438U 02027A   25180.44716839  .00000089  00000+0  00000+0 0  9998
2 27438   5.8650  74.0639 0002395  18.7476 208.7066  1.00270472 47824
GALAXY 3C (G-3C)        
1 27445U 02030A   25180.47824781 -.00000157  00000+0  00000+0 0  9996
2 27445   2.8253  82.4378 0002959  47.4657 225.2143  1.00270018 42952
INTELSAT 906 (IS-906)   
1 27513U 02041A   25180.15291275  .00000007  00000+0  00000+0 0  9998
2 27513   4.9035  77.3027 0003924  12.3236 307.0404  1.00271282 83486
GALAXY 23 (G-23)        
1 27854U 03034A   25180.60847350  .00000063  00000+0  00000+0 0  9992
2 27854   2.2845  84.0696 0001364 111.0016 143.7036  0.99593202 80209
GALAXY 13 (HORIZONS-1)  
1 27954U 03044A   25180.56711506  .00000129  00000+0  00000+0 0  9995
2 27954   0.5059  89.4199 0002021   0.3320 242.2936  1.00272229 43034
INTELSAT 10-02          
1 28358U 04022A   25180.42543218 -.00000015  00000+0  00000+0 0  9994
2 28358   0.0146 309.2649 0000582 121.7598 358.9058  1.00271318 77016
XM-3 (RHYTHM)           
1 28626U 05008A   25180.07933662 -.00000203  00000+0  00000+0 0  9993
2 28626   0.0388 150.3449 0000264  30.7247  38.5476  1.00268865 39085
DIRECTV 8               
1 28659U 05019A   25180.51711575 -.00000002  00000+0  00000+0 0  9994
2 28659   0.0122 312.5419 0002879 148.3540 244.0483  1.00273274 73532
GALAXY 28 (G-28)        
1 28702U 05022A   25180.47946413 -.00000192  00000+0  00000+0 0  9993
2 28702   2.3890  83.3861 0002605  25.5197 252.8039  1.00275967 48440
GALAXY 16 (G-16)        
1 29236U 06023A   25180.47746589 -.00000130  00000+0  00000+0 0  9992
2 29236   0.0029 321.4535 0002529 136.5724 252.6427  1.00271781 69431
DIRECTV 9S              
1 29494U 06043A   25180.47703148 -.00000117  00000+0  00000+0 0  9999
2 29494   1.5100  85.3058 0002863  16.4750 246.5388  1.00271125 47846
GALAXY 17 (G-17)        
1 31307U 07016B   25180.48024606 -.00000210  00000+0  00000+0 0  9996
2 31307   2.0787  84.4654 0002556  43.7732 237.4303  1.00272074 66260
DIRECTV 10              
1 31862U 07032A   25180.49878260 -.00000107  00000+0  00000+0 0  9999
2 31862   0.0434 212.1094 0000482 349.7727 152.7018  1.00272783 42050
INTELSAT 11 (IS-11)     
1 32253U 07044B   25180.54791343  .00000070  00000+0  00000+0 0  9997
2 32253   2.6461  83.0762 0003843  75.7184 192.8710  0.99047633 64955
HORIZONS-2              
1 32388U 07063B   25180.48241807 -.00000257  00000+0  00000+0 0  9993
2 32388   1.6913  85.1040 0001942  24.8927 267.6506  1.00273982 64275
DIRECTV 11              
1 32729U 08013A   25180.47737900 -.00000128  00000+0  00000+0 0  9998
2 32729   0.0168 196.4360 0000705  94.1619  59.8646  1.00266638 42052
GALAXY 18 (G-18)        
1 32951U 08024A   25180.53378081  .00000022  00000+0  00000+0 0  9997
2 32951   0.0177 297.3397 0003119 163.8958 245.7599  1.00272650 42315
INTELSAT 25 (IS-25)     
1 33153U 08034A   25180.49084547 -.00000228  00000+0  00000+0 0  9998
2 33153   1.7983  84.7661 0003067  24.0926 314.1686  1.00272479 62151
GALAXY 19 (G-19)        
1 33376U 08045A   25180.47781341 -.00000142  00000+0  00000+0 0  9996
2 33376   0.0183  22.3366 0002755  77.9020 252.5769  1.00269301 61366
FM-5                    
1 35493U 09034A   25179.62335867 -.00000205  00000+0  00000+0 0  9990
2 35493   0.0165 340.0049 0000772   5.8255  69.3776  1.00270285 43098
INTELSAT 14 (IS-14)     
1 36097U 09064A   25180.43308804 -.00000277  00000+0  00000+0 0  9995
2 36097   0.0199  53.5423 0002398  55.5140 279.6171  1.00271844 57068
INTELSAT 15 (IS-15)     
1 36106U 09067A   25180.58533027 -.00000189  00000+0  00000+0 0  9994
2 36106   0.0188  16.1916 0002076  86.4985 111.0748  1.00271616 37695
DIRECTV 12              
1 36131U 09075A   25180.49878260 -.00000107  00000+0  00000+0 0  9992
2 36131   0.0076 108.2936 0000465 322.2684 284.0926  1.00269972 43015
INTELSAT 16 (IS-16)     
1 36397U 10006A   25180.46122705 -.00000248  00000+0  00000+0 0  9991
2 36397   0.0166 318.4830 0001907 151.8669 257.2594  1.00272810 56111
XM-5                    
1 37185U 10053A   25180.52822289 -.00000027  00000+0  00000+0 0  9995
2 37185   0.0445 274.3165 0000425  78.8048 359.6899  1.00272964 53944
INTELSAT 17 (IS-17)     
1 37238U 10065B   25180.62995016 -.00000005  00000+0  00000+0 0  9993
2 37238   0.0383  77.8479 0002678  39.0268  93.8387  1.00272248 49717
INTELSAT 28 (IS-28)     
1 37392U 11016A   25180.42753035 -.00000229  00000+0  00000+0 0  9990
2 37392   0.8940  87.3395 0003829   3.8386 308.7668  1.00269912 49744
INTELSAT 18 (IS-18)     
1 37834U 11056A   25180.60412948  .00000049  00000+0  00000+0 0  9999
2 37834   0.0140  61.0869 0001719  26.9640 227.3505  1.00271141 50272
INTELSAT 22 (IS-22)     
1 38098U 12011A   25180.51141444 -.00000063  00000+0  00000+0 0  9991
2 38098   0.0139  41.7828 0001423  60.0164  72.2381  1.00273950  3654
INTELSAT 19 (IS-19)     
1 38356U 12030A   25180.59836424 -.00000060  00000+0  00000+0 0  9993
2 38356   0.0184  17.9808 0002893  85.7660 195.5763  1.00271851 46918
INTELSAT 20 (IS-20)     
1 38740U 12043A   25180.15378156 -.00000029  00000+0  00000+0 0  9994
2 38740   0.0086  64.6024 0000882 120.3565 216.3772  1.00270088 47207
INTELSAT 21 (IS-21)     
1 38749U 12045A   25180.48554576 -.00000288  00000+0  00000+0 0  9990
2 38749   0.0194  66.4442 0001863  44.2832 283.8659  1.00271124 46980
INTELSAT 23 (IS-23)     
1 38867U 12057A   25180.48658833 -.00000288  00000+0  00000+0 0  9995
2 38867   0.0467 103.6200 0001207 291.5183   4.7959  1.00267248 46411
FM-6                    
1 39360U 13058A   25180.51711575 -.00000020  00000+0  00000+0 0  9997
2 39360   0.0402  74.0981 0001709  97.0848 176.6539  1.00270727 42527
INTELSAT 30 (IS-30)     
1 40271U 14062A   25179.27869595 -.00000156  00000+0  00000+0 0  9993
2 40271   0.0161  37.4300 0001354 345.0989 259.3488  1.00272297  3239
DIRECTV 14              
1 40333U 14078B   25180.47737900 -.00000129  00000+0  00000+0 0  9997
2 40333   0.0176  25.2698 0000464 156.9520 168.1963  1.00270355 38506
DIRECTV 15              
1 40663U 15026A   25180.49878260 -.00000107  00000+0  00000+0 0  9990
2 40663   0.0150  48.0310 0000286  68.8974 237.5850  1.00276729 36925
SKY MEXICO-1            
1 40664U 15026B   25180.48146238 -.00000238  00000+0  00000+0 0  9998
2 40664   0.0079  40.9370 0001920  59.7445 271.6771  1.00272022 36913
INTELSAT 34 (IS-34)     
1 40874U 15039A   25180.20466833 -.00000290  00000+0  00000+0 0  9999
2 40874   0.0200  19.0655 0001393 327.9343 308.7269  1.00268460 36089
INTELSAT 31 (IS-31)     
1 41581U 16035A   25180.28617208 -.00000154  00000+0  00000+0 0  9993
2 41581   0.0117  19.1070 0001860 215.3318  51.1355  1.00269614 33146
INTELSAT 36 (IS-36)     
1 41747U 16053A   25180.43930105 -.00000028  00000+0  00000+0 0  9998
2 41747   0.0113  20.7558 0001945 315.5429 168.1034  1.00271320 32414
INTELSAT 32E (IS-32E)   
1 41945U 17007B   25180.45386991 -.00000273  00000+0  00000+0 0  9990
2 41945   0.0239  73.4468 0000172 268.2380  56.2919  1.00271888 30684
INTELSAT 35E (IS-35E)   
1 42818U 17041A   25180.49023731 -.00000242  00000+0  00000+0 0  9998
2 42818   0.0152 321.5955 0001751 129.1557 329.0505  1.00270751 29274
INTELSAT 37E (IS-37E)   
1 42950U 17059A   25180.42197541 -.00000145  00000+0  00000+0 0  9990
2 42950   0.0184  33.6650 0002607  91.4394 286.5431  1.00270966 28520
AZERSPACE 2 (IS-38)     
1 43632U 18074A   25180.50602787  .00000133  00000+0  00000+0 0  9994
2 43632   0.0198  18.6137 0001408  78.8949  47.6077  1.00269526 24910
HORIZONS-3E             
1 43633U 18074B   25180.59836424 -.00000034  00000+0  00000+0 0  9992
2 43633   0.0629 198.5830 0001012  86.9852  16.7528  1.00270659 24807
AT&T T-16               
1 44333U 19034A   25180.47711837 -.00000119  00000+0  00000+0 0  9998
2 44333   0.0255  74.2262 0000762 275.9261 358.5461  1.00270778 22098
INTELSAT 39 (IS-39)     
1 44476U 19049B   25180.62317016  .00000030  00000+0  00000+0 0  9991
2 44476   0.0206  23.3792 0001227 306.5528 234.3031  1.00268948 21593
GALAXY 30 (G-30)        
1 46114U 20056C   25180.53378081  .00000033  00000+0  00000+0 0  9994
2 46114   0.0183  26.3430 0001908  71.0671 247.5838  1.00272683 17866
GALAXY 33 (G-33)        
1 54026U 22128A   25180.54489155  .00000075  00000+0  00000+0 0  9999
2 54026   0.0195  13.2886 0001722  81.8452 245.8891  1.00271599 10194
GALAXY 34 (G-34)        
1 54027U 22128B   25179.61484439  .00000054  00000+0  00000+0 0  9993
2 54027   0.0100  56.8109 0001225  54.2147 258.2417  1.00270850 10365
GALAXY 31 (G-31)        
1 54243U 22153A   25180.53378081  .00000009  00000+0  00000+0 0  9999
2 54243   0.0178  81.0999 0000301  47.9232 219.9840  1.00272016  9622
GALAXY 32 (G-32)        
1 54244U 22153B   25179.88725451 -.00000179  00000+0  00000+0 0  9992
2 54244   0.0163  46.9807 0001819 355.4373 103.2054  1.00271623  9606
GALAXY 35 (G-35)        
1 54741U 22170A   25180.47859534 -.00000165  00000+0  00000+0 0  9995
2 54741   0.0157  43.1920 0001929  52.7265 261.0719  1.00268574  9359
GALAXY 36 (G-36)        
1 54742U 22170B   25180.22475308 -.00000189  00000+0  00000+0 0  9998
2 54742   0.0265  94.5120 0002558   3.8316 171.1127  1.00271394  9230
GALAXY 37 (G-37)        
1 57493U 23112A   25180.53378081  .00000044  00000+0  00000+0 0  9994
2 57493   0.0219  58.1920 0001827  37.4514 247.3711  1.00272325  6989
